{"type": "FeatureCollection", "features": [ {"type": "Feature", "properties": {"norad_id": 38552, "name": "METEOSAT-10 (MSG-3)", "group": "weather", "lat": -1.4895423276164232, "lon": 40.863678551118525, "alt_km": 35786.684299526314, "timestamp": "2025-12-08T21:31:04.318136+00:00", "meta": {"OBJECT_NAME": "METEOSAT-10 (MSG-3)", "OBJECT_ID": "2012-035B", "EPOCH": "2025-12-08T01:37:13.932768", "MEAN_MOTION": 1.00273522, "ECCENTRICITY": 8.845e-05, "INCLINATION": 4.2178, "RA_OF_ASC_NODE": 61.7316, "ARG_OF_PERICENTER": 234.9391, "MEAN_ANOMALY": 164.8501, "EPHEMERIS_TYPE": 0, "CLASSIFICATION_TYPE": "U", "NORAD_CAT_ID": 38552, "ELEMENT_SET_NO": 999, "REV_AT_EPOCH": 4894, "BSTAR": 0, "MEAN_MOTION_DOT": -4e-08, "MEAN_MOTION_DDOT": 0}, "tle": {"line1": "1 38552U 12035B   25342.06752237 -.00000004  00000+0  00000+0 0  9995", "line2": "2 38552   4.2178  61.7316 0000884 234.9391 164.8501  1.00273522 48944"}}, "geometry": {"type": "Point", "coordinates": [40.863678551118525, -1.4895423276164232]}}, {"type": "Feature", "properties": {"norad_id": 38771, "name": "METOP-B", "group": "weather", "lat": -52.42762319887816, "lon": -158.53322827886242, "alt_km": 827.2170294739744, "timestamp": "2025-12-08T21:31:04.318158+00:00", "meta": {"OBJECT_NAME": "METOP-B", "OBJECT_ID": "2012-049A", "EPOCH": "2025-12-08T15:21:21.165120", "MEAN_MOTION": 14.21406297, "ECCENTRICITY": 0.00027404, "INCLINATION": 98.6805, "RA_OF_ASC_NODE": 32.668, "ARG_OF_PERICENTER": 153.1003, "MEAN_ANOMALY": 207.0317, "EPHEMERIS_TYPE": 0, "CLASSIFICATION_TYPE": "U", "NORAD_CAT_ID": 38771, "ELEMENT_SET_NO": 999, "REV_AT_EPOCH": 68619, "BSTAR": 0.00015046995, "MEAN_MOTION_DOT": 2.85e-06, "MEAN_MOTION_DDOT": 0}, "tle": {"line1": "1 38771U 12049A   25342.63982830  .00000285  00000+0  15047-3 0  9991", "line2": "2 38771  98.6805  32.6680 0002740 153.1003 207.0317 14.21406297686191"}}, "geometry": {"type": "Point", "coordinates": [-158.53322827886242, -52.42762319887816]}}, {"type": "Feature", "properties": {"norad_id": 39216, "name": "INSAT-3D", "group": "weather", "lat": 1.4277351647199663, "lon": 170.18705438224262, "alt_km": 35784.40857498306, "timestamp": "2025-12-08T21:31:04.318182+00:00", "meta": {"OBJECT_NAME": "INSAT-3D", "OBJECT_ID": "2013-038B", "EPOCH": "2025-12-08T14:21:38.470752", "MEAN_MOTION": 1.00271541, "ECCENTRICITY": 0.00016898, "INCLINATION": 1.4342, "RA_OF_ASC_NODE": 85.0326, "ARG_OF_PERICENTER": 162.1145, "MEAN_ANOMALY": 175.411, "EPHEMERIS_TYPE": 0, "CLASSIFICATION_TYPE": "U", "NORAD_CAT_ID": 39216, "ELEMENT_SET_NO": 999, "REV_AT_EPOCH": 4516, "BSTAR": 0, "MEAN_MOTION_DOT": -3.37e-06, "MEAN_MOTION_DDOT": 0}, "tle": {"line1": "1 39216U 13038B   25342.59836193 -.00000337  00000+0  00000+0 0  9998", "line2": "2 39216   1.4342  85.0326 0001689 162.1145 175.4110  1.00271541 45161"}}, "geometry": {"type": "Point", "coordinates": [170.18705438224262, 1.4277351647199663]}}, {"type": "Feature", "properties": {"norad_id": 39260, "name": "FENGYUN 3C", "group": "weather", "lat": -19.060829240374314, "lon": 137.81041735104003, "alt_km": 834.942626463313, "timestamp": "2025-12-08T21:31:04.318196+00:00", "meta": {"OBJECT_NAME": "FENGYUN 3C", "OBJECT_ID": "2013-052A", "EPOCH": "2025-12-08T15:29:26.926656", "MEAN_MOTION": 14.15694466, "ECCENTRICITY": 0.00140576, "INCLINATION": 98.476, "RA_OF_ASC_NODE": 320.5249, "ARG_OF_PERICENTER": 208.1965, "MEAN_ANOMALY": 151.8451, "EPHEMERIS_TYPE": 0, "CLASSIFICATION_TYPE": "U", "NORAD_CAT_ID": 39260, "ELEMENT_SET_NO": 999, "REV_AT_EPOCH": 63160, "BSTAR": 0.00013520676, "MEAN_MOTION_DOT": 2.24e-06, "MEAN_MOTION_DDOT": 0}, "tle": {"line1": "1 39260U 13052A   25342.64545054  .00000224  00000+0  13521-3 0  9992", "line2": "2 39260  98.4760 320.5249 0014057 208.1965 151.8451 14.15694466631606"}}, "geometry": {"type": "Point", "coordinates": [137.81041735104003, -19.060829240374314]}}, {"type": "Feature", "properties": {"norad_id": 40069, "name": "METEOR-M 2", "group": "weather", "lat": 75.43344636284466, "lon": 175.71424454260506, "alt_km": 815.2514258462843, "timestamp": "2025-12-08T21:31:04.318208+00:00", "meta": {"OBJECT_NAME": "METEOR-M 2", "OBJECT_ID": "2014-037A", "EPOCH": "2025-12-08T14:16:55.925472", "MEAN_MOTION": 14.21384246, "ECCENTRICITY": 0.00048742, "INCLINATION": 98.4899, "RA_OF_ASC_NODE": 320.3387, "ARG_OF_PERICENTER": 222.7698, "MEAN_ANOMALY": 137.3102, "EPHEMERIS_TYPE": 0, "CLASSIFICATION_TYPE": "U", "NORAD_CAT_ID": 40069, "ELEMENT_SET_NO": 999, "REV_AT_EPOCH": 59224, "BSTAR": 0.00016367118, "MEAN_MOTION_DOT": 3.15e-06, "MEAN_MOTION_DDOT": 0}, "tle": {"line1": "1 40069U 14037A   25342.59509173  .00000315  00000+0  16367-3 0  9993", "line2": "2 40069  98.4899 320.3387 0004874 222.7698 137.3102 14.21384246592247"}}, "geometry": {"type": "Point", "coordinates": [175.71424454260506, 75.43344636284466]}}, {"type": "Feature", "properties": {"norad_id": 40267, "name": "HIMAWARI-8", "group": "weather", "lat": -0.022040328702033953, "lon": -178.69078087396446, "alt_km": 35788.671072932244, "timestamp": "2025-12-08T21:31:04.318221+00:00", "meta": {"OBJECT_NAME": "HIMAWARI-8", "OBJECT_ID": "2014-060A", "EPOCH": "2025-12-08T14:16:25.895424", "MEAN_MOTION": 1.00270585, "ECCENTRICITY": 0.0001276, "INCLINATION": 0.0332, "RA_OF_ASC_NODE": 224.0162, "ARG_OF_PERICENTER": 71.8182, "MEAN_ANOMALY": 136.5361, "EPHEMERIS_TYPE": 0, "CLASSIFICATION_TYPE": "U", "NORAD_CAT_ID": 40267, "ELEMENT_SET_NO": 999, "REV_AT_EPOCH": 4084, "BSTAR": 0, "MEAN_MOTION_DOT": -2.73e-06, "MEAN_MOTION_DDOT": 0}, "tle": {"line1": "1 40267U 14060A   25342.59474416 -.00000273  00000+0  00000+0 0  9997", "line2": "2 40267   0.0332 224.0162 0001276  71.8182 136.5361  1.00270585 40848"}}, "geometry": {"type": "Point", "coordinates": [-178.69078087396446, -0.022040328702033953]}}, {"type": "Feature", "properties": {"norad_id": 40367, "name": "FENGYUN 2G", "group": "weather", "lat": 4.69016020587264, "lon": 140.17308300432833, "alt_km": 35796.078041235894, "timestamp": "2025-12-08T21:31:04.318233+00:00", "meta": {"OBJECT_NAME": "FENGYUN 2G", "OBJECT_ID": "2014-090A", "EPOCH": "2025-12-07T19:14:37.154688", "MEAN_MOTION": 1.00265807, "ECCENTRICITY": 0.00031202, "INCLINATION": 5.1554, "RA_OF_ASC_NODE": 75.1544, "ARG_OF_PERICENTER": 196.9461, "MEAN_ANOMALY": 193.0185, "EPHEMERIS_TYPE": 0, "CLASSIFICATION_TYPE": "U", "NORAD_CAT_ID": 40367, "ELEMENT_SET_NO": 999, "REV_AT_EPOCH": 4008, "BSTAR": 0, "MEAN_MOTION_DOT": -3e-06, "MEAN_MOTION_DDOT": 0}, "tle": {"line1": "1 40367U 14090A   25341.80181892 -.00000300  00000+0  00000+0 0  9998", "line2": "2 40367   5.1554  75.1544 0003120 196.9461 193.0185  1.00265807 40088"}}, "geometry": {"type": "Point", "coordinates": [140.17308300432833, 4.69016020587264]}}, {"type": "Feature", "properties": {"norad_id": 40732, "name": "METEOSAT-11 (MSG-4)", "group": "weather", "lat": -1.0014596665943243, "lon": 50.03346171899329, "alt_km": 35791.023470244385, "timestamp": "2025-12-08T21:31:04.318252+00:00", "meta": {"OBJECT_NAME": "METEOSAT-11 (MSG-4)", "OBJECT_ID": "2015-034A", "EPOCH": "2025-12-08T06:47:59.170272", "MEAN_MOTION": 1.00266103, "ECCENTRICITY": 9.754e-05, "INCLINATION": 2.7242, "RA_OF_ASC_NODE": 72.0144, "ARG_OF_PERICENTER": 120.6202, "MEAN_ANOMALY": 356.0214, "EPHEMERIS_TYPE": 0, "CLASSIFICATION_TYPE": "U", "NORAD_CAT_ID": 40732, "ELEMENT_SET_NO": 999, "REV_AT_EPOCH": 530, "BSTAR": 0, "MEAN_MOTION_DOT": 6.3e-07, "MEAN_MOTION_DDOT": 0}, "tle": {"line1": "1 40732U 15034A   25342.28332373  .00000063  00000+0  00000+0 0  9993", "line2": "2 40732   2.7242  72.0144 0000975 120.6202 356.0214  1.00266103  5305"}}, "geometry": {"type": "Point", "coordinates": [50.03346171899329, -1.0014596665943243]}}, {"type": "Feature", "properties": {"norad_id": 41105, "name": "ELEKTRO-L 2", "group": "weather", "lat": -4.506762015743513, "lon": 26.369811879923294, "alt_km": 35792.57479876393, "timestamp": "2025-12-08T21:31:04.318264+00:00", "meta": {"OBJECT_NAME": "ELEKTRO-L 2", "OBJECT_ID": "2015-074A", "EPOCH": "2025-12-08T01:32:59.339616", "MEAN_MOTION": 1.00272095, "ECCENTRICITY": 0.00038959, "INCLINATION": 6.2137, "RA_OF_ASC_NODE": 72.8831, "ARG_OF_PERICENTER": 202.1976, "MEAN_ANOMALY": 170.7351, "EPHEMERIS_TYPE": 0, "CLASSIFICATION_TYPE": "U", "NORAD_CAT_ID": 41105, "ELEMENT_SET_NO": 999, "REV_AT_EPOCH": 3659, "BSTAR": 0, "MEAN_MOTION_DOT": -1.16e-06, "MEAN_MOTION_DDOT": 0}, "tle": {"line1": "1 41105U 15074A   25342.06457569 -.00000116  00000+0  00000+0 0  9993", "line2": "2 41105   6.2137  72.8831 0003895 202.1976 170.7351  1.00272095 36596"}}, "geometry": {"type": "Point", "coordinates": [26.369811879923294, -4.506762015743513]}}, {"type": "Feature", "properties": {"norad_id": 41752, "name": "INSAT-3DR", "group": "weather", "lat": 0.0538659293598922, "lon": 114.59848231568847, "alt_km": 35842.46708744098, "timestamp": "2025-12-08T21:31:04.318277+00:00", "meta": {"OBJECT_NAME": "INSAT-3DR", "OBJECT_ID": "2016-054A", "EPOCH": "2025-12-08T13:57:27.711936", "MEAN_MOTION": 1.00270195, "ECCENTRICITY": 0.00145381, "INCLINATION": 0.0819, "RA_OF_ASC_NODE": 86.8182, "ARG_OF_PERICENTER": 183.2476, "MEAN_ANOMALY": 90.8953, "EPHEMERIS_TYPE": 0, "CLASSIFICATION_TYPE": "U", "NORAD_CAT_ID": 41752, "ELEMENT_SET_NO": 999, "REV_AT_EPOCH": 3390, "BSTAR": 0, "MEAN_MOTION_DOT": -7.5e-07, "MEAN_MOTION_DDOT": 0}, "tle": {"line1": "1 41752U 16054A   25342.58157074 -.00000075  00000+0  00000+0 0  9999", "line2": "2 41752   0.0819  86.8182 0014538 183.2476  90.8953  1.00270195 33908"}}, "geometry": {"type": "Point", "coordinates": [114.59848231568847, 0.0538659293598922]}}]}